[{"OBJECT_NAME":"BEIDOU-3 G4 (C62)","OBJECT_ID":"2023-066A","EPOCH":"2026-04-26T12:31:23.515680","MEAN_MOTION":1.00272471,"ECCENTRICITY":0.0002779,"INCLINATION":0.5575,"RA_OF_ASC_NODE":319.9726,"ARG_OF_PERICENTER":160.7086,"MEAN_ANOMALY":61.7753,"EPHEMERIS_TYPE":0,"CLASSIFICATION_TYPE":"U","NORAD_CAT_ID":56564,"ELEMENT_SET_NO":999,"REV_AT_EPOCH":1087,"BSTAR":0,"MEAN_MOTION_DOT":-2.94e-6,"MEAN_MOTION_DDOT":0},{"OBJECT_NAME":"NVS-01 (IRNSS-1J)","OBJECT_ID":"2023-076A","EPOCH":"2026-04-26T08:50:38.819040","MEAN_MOTION":1.00268562,"ECCENTRICITY":0.0005464,"INCLINATION":2.2879,"RA_OF_ASC_NODE":246.5791,"ARG_OF_PERICENTER":50.018,"MEAN_ANOMALY":179.9615,"EPHEMERIS_TYPE":0,"CLASSIFICATION_TYPE":"U","NORAD_CAT_ID":56759,"ELEMENT_SET_NO":999,"REV_AT_EPOCH":1059,"BSTAR":0,"MEAN_MOTION_DOT":-3.51e-6,"MEAN_MOTION_DDOT":0},{"OBJECT_NAME":"COSMOS 2569 (703K)","OBJECT_ID":"2023-114A","EPOCH":"2026-04-26T03:58:43.359168","MEAN_MOTION":2.13103766,"ECCENTRICITY":0.0012417,"INCLINATION":65.2744,"RA_OF_ASC_NODE":74.3736,"ARG_OF_PERICENTER":295.3844,"MEAN_ANOMALY":64.4658,"EPHEMERIS_TYPE":0,"CLASSIFICATION_TYPE":"U","NORAD_CAT_ID":57517,"ELEMENT_SET_NO":999,"REV_AT_EPOCH":2115,"BSTAR":0,"MEAN_MOTION_DOT":7.0e-8,"MEAN_MOTION_DDOT":0},{"OBJECT_NAME":"BEIDOU-3 M28 (C50)","OBJECT_ID":"2023-207A","EPOCH":"2026-04-25T03:22:06.533760","MEAN_MOTION":1.86229672,"ECCENTRICITY":0.00046378,"INCLINATION":55.7083,"RA_OF_ASC_NODE":64.0917,"ARG_OF_PERICENTER":322.6569,"MEAN_ANOMALY":37.2856,"EPHEMERIS_TYPE":0,"CLASSIFICATION_TYPE":"U","NORAD_CAT_ID":58654,"ELEMENT_SET_NO":999,"REV_AT_EPOCH":1585,"BSTAR":0,"MEAN_MOTION_DOT":-3.0e-7,"MEAN_MOTION_DDOT":0},{"OBJECT_NAME":"BEIDOU-3 M26 (C48)","OBJECT_ID":"2023-207B","EPOCH":"2026-04-26T00:16:56.147808","MEAN_MOTION":1.86229668,"ECCENTRICITY":0.0004978,"INCLINATION":55.711,"RA_OF_ASC_NODE":64.0489,"ARG_OF_PERICENTER":305.0677,"MEAN_ANOMALY":54.8583,"EPHEMERIS_TYPE":0,"CLASSIFICATION_TYPE":"U","NORAD_CAT_ID":58655,"ELEMENT_SET_NO":999,"REV_AT_EPOCH":1585,"BSTAR":0,"MEAN_MOTION_DOT":-3.7e-7,"MEAN_MOTION_DDOT":0},{"OBJECT_NAME":"GSAT0225 (GALILEO 29)","OBJECT_ID":"2024-079A","EPOCH":"2026-04-24T10:41:02.450400","MEAN_MOTION":1.70474282,"ECCENTRICITY":0.00026494,"INCLINATION":55.0858,"RA_OF_ASC_NODE":102.5798,"ARG_OF_PERICENTER":282.4713,"MEAN_ANOMALY":80.4437,"EPHEMERIS_TYPE":0,"CLASSIFICATION_TYPE":"U","NORAD_CAT_ID":59598,"ELEMENT_SET_NO":999,"REV_AT_EPOCH":1240,"BSTAR":0,"MEAN_MOTION_DOT":4.4e-7,"MEAN_MOTION_DDOT":0},{"OBJECT_NAME":"GSAT0227 (GALILEO 30)","OBJECT_ID":"2024-079C","EPOCH":"2026-04-25T05:02:58.067520","MEAN_MOTION":1.70474357,"ECCENTRICITY":0.00012286,"INCLINATION":55.0821,"RA_OF_ASC_NODE":102.5574,"ARG_OF_PERICENTER":13.4677,"MEAN_ANOMALY":346.5305,"EPHEMERIS_TYPE":0,"CLASSIFICATION_TYPE":"U","NORAD_CAT_ID":59600,"ELEMENT_SET_NO":999,"REV_AT_EPOCH":1246,"BSTAR":0,"MEAN_MOTION_DOT":4.4e-7,"MEAN_MOTION_DDOT":0},{"OBJECT_NAME":"GSAT0232 (GALILEO 32)","OBJECT_ID":"2024-167A","EPOCH":"2026-04-25T10:48:14.679360","MEAN_MOTION":1.70474394,"ECCENTRICITY":0.00048449,"INCLINATION":55.2008,"RA_OF_ASC_NODE":222.7596,"ARG_OF_PERICENTER":214.4336,"MEAN_ANOMALY":148.2272,"EPHEMERIS_TYPE":0,"CLASSIFICATION_TYPE":"U","NORAD_CAT_ID":61182,"ELEMENT_SET_NO":999,"REV_AT_EPOCH":998,"BSTAR":0,"MEAN_MOTION_DOT":-3.7e-7,"MEAN_MOTION_DDOT":0},{"OBJECT_NAME":"GSAT0226 (GALILEO 31)","OBJECT_ID":"2024-167B","EPOCH":"2026-04-25T23:23:57.530688","MEAN_MOTION":1.70474391,"ECCENTRICITY":0.00017949,"INCLINATION":55.1993,"RA_OF_ASC_NODE":222.7524,"ARG_OF_PERICENTER":193.7985,"MEAN_ANOMALY":222.2896,"EPHEMERIS_TYPE":0,"CLASSIFICATION_TYPE":"U","NORAD_CAT_ID":61183,"ELEMENT_SET_NO":999,"REV_AT_EPOCH":996,"BSTAR":0,"MEAN_MOTION_DOT":-3.8e-7,"MEAN_MOTION_DDOT":0},{"OBJECT_NAME":"BEIDOU-3 M25 (C47)","OBJECT_ID":"2024-168B","EPOCH":"2026-04-25T00:50:02.241024","MEAN_MOTION":1.8622996,"ECCENTRICITY":0.00032843,"INCLINATION":54.5213,"RA_OF_ASC_NODE":304.0879,"ARG_OF_PERICENTER":319.3205,"MEAN_ANOMALY":222.7466,"EPHEMERIS_TYPE":0,"CLASSIFICATION_TYPE":"U","NORAD_CAT_ID":61186,"ELEMENT_SET_NO":999,"REV_AT_EPOCH":1079,"BSTAR":0,"MEAN_MOTION_DOT":-4.9e-7,"MEAN_MOTION_DDOT":0},{"OBJECT_NAME":"BEIDOU-3 M27 (C49)","OBJECT_ID":"2024-168C","EPOCH":"2026-04-26T10:41:40.860384","MEAN_MOTION":1.86230164,"ECCENTRICITY":0.0002607,"INCLINATION":54.5157,"RA_OF_ASC_NODE":304.022,"ARG_OF_PERICENTER":40.2709,"MEAN_ANOMALY":142.718,"EPHEMERIS_TYPE":0,"CLASSIFICATION_TYPE":"U","NORAD_CAT_ID":61187,"ELEMENT_SET_NO":999,"REV_AT_EPOCH":829,"BSTAR":0,"MEAN_MOTION_DOT":-5.8e-7,"MEAN_MOTION_DDOT":0},{"OBJECT_NAME":"GPS BIII-7  (PRN 01)","OBJECT_ID":"2024-242A","EPOCH":"2026-04-26T05:41:38.583168","MEAN_MOTION":2.00570556,"ECCENTRICITY":0.0016833,"INCLINATION":54.8705,"RA_OF_ASC_NODE":336.2872,"ARG_OF_PERICENTER":0.5482,"MEAN_ANOMALY":176.6522,"EPHEMERIS_TYPE":0,"CLASSIFICATION_TYPE":"U","NORAD_CAT_ID":62339,"ELEMENT_SET_NO":999,"REV_AT_EPOCH":1021,"BSTAR":0,"MEAN_MOTION_DOT":-8.5e-7,"MEAN_MOTION_DDOT":0},{"OBJECT_NAME":"NVS-02 (IRNSS-1K)","OBJECT_ID":"2025-020A","EPOCH":"2026-04-24T17:33:18.919008","MEAN_MOTION":2.17868827,"ECCENTRICITY":0.7348927,"INCLINATION":20.7946,"RA_OF_ASC_NODE":278.7977,"ARG_OF_PERICENTER":113.8013,"MEAN_ANOMALY":335.2554,"EPHEMERIS_TYPE":0,"CLASSIFICATION_TYPE":"U","NORAD_CAT_ID":62850,"ELEMENT_SET_NO":999,"REV_AT_EPOCH":981,"BSTAR":0.00093109055,"MEAN_MOTION_DOT":1.151e-5,"MEAN_MOTION_DDOT":0},{"OBJECT_NAME":"QZS-6 (QZSS/PRN 200)","OBJECT_ID":"2025-023A","EPOCH":"2026-04-26T12:17:09.881088","MEAN_MOTION":1.00271607,"ECCENTRICITY":0.0002688,"INCLINATION":0.0129,"RA_OF_ASC_NODE":73.8694,"ARG_OF_PERICENTER":331.1293,"MEAN_ANOMALY":84.2857,"EPHEMERIS_TYPE":0,"CLASSIFICATION_TYPE":"U","NORAD_CAT_ID":62876,"ELEMENT_SET_NO":999,"REV_AT_EPOCH":444,"BSTAR":0,"MEAN_MOTION_DOT":0,"MEAN_MOTION_DDOT":0},{"OBJECT_NAME":"COSMOS 2584 (704K)","OBJECT_ID":"2025-042A","EPOCH":"2026-04-25T02:44:24.045216","MEAN_MOTION":2.13103596,"ECCENTRICITY":0.00067908,"INCLINATION":65.056,"RA_OF_ASC_NODE":74.6052,"ARG_OF_PERICENTER":237.6695,"MEAN_ANOMALY":122.2461,"EPHEMERIS_TYPE":0,"CLASSIFICATION_TYPE":"U","NORAD_CAT_ID":63130,"ELEMENT_SET_NO":999,"REV_AT_EPOCH":891,"BSTAR":0,"MEAN_MOTION_DOT":1.6e-7,"MEAN_MOTION_DDOT":0},{"OBJECT_NAME":"GPS BIII-8  (PRN 21)","OBJECT_ID":"2025-116A","EPOCH":"2026-04-23T05:49:38.568864","MEAN_MOTION":2.00549673,"ECCENTRICITY":0.00091244,"INCLINATION":55.1985,"RA_OF_ASC_NODE":33.3417,"ARG_OF_PERICENTER":335.2523,"MEAN_ANOMALY":22.0569,"EPHEMERIS_TYPE":0,"CLASSIFICATION_TYPE":"U","NORAD_CAT_ID":64202,"ELEMENT_SET_NO":999,"REV_AT_EPOCH":676,"BSTAR":0,"MEAN_MOTION_DOT":-8.1e-7,"MEAN_MOTION_DDOT":0},{"OBJECT_NAME":"COSMOS 2596 (708K)","OBJECT_ID":"2025-206B","EPOCH":"2026-04-25T04:50:57.810336","MEAN_MOTION":2.13100414,"ECCENTRICITY":0.0011599,"INCLINATION":64.665,"RA_OF_ASC_NODE":316.8296,"ARG_OF_PERICENTER":316.9734,"MEAN_ANOMALY":227.3176,"EPHEMERIS_TYPE":0,"CLASSIFICATION_TYPE":"U","NORAD_CAT_ID":65590,"ELEMENT_SET_NO":999,"REV_AT_EPOCH":478,"BSTAR":0,"MEAN_MOTION_DOT":-2.7e-7,"MEAN_MOTION_DDOT":0}]
